0 PSLV DEB
1 27583U 01049NB  13281.87401888  .00005030  00000-0  53054-3 0   335
2 27583 097.5881 290.5906 0032852 135.6136 343.7457 14.89326153609999
0 PSLV DEB
1 27583U 01049NB  13282.81568579  .00006266  00000-0  65917-3 0   345
2 27583 097.5881 291.4937 0032846 132.6776 352.4056 14.89345854610132
0 PSLV DEB
1 27583U 01049NB  13283.82339297  .00008063  00000-0  84622-3 0   352
2 27583 097.5880 292.4601 0032845 129.5517 355.1748 14.89354451610284
0 PSLV DEB
1 27583U 01049NB  13285.83877580  .00006472  00000-0  68003-3 0   376
2 27583 097.5876 294.3932 0032975 123.2805 000.6721 14.89375297610589
0 PSLV DEB
1 27583U 01049NB  13286.84613662  .00007113  00000-0  74662-3 0   389
2 27583 097.5873 295.3594 0033092 120.0426 001.8099 14.89384434610737
0 PSLV DEB
1 27583U 01049NB  13287.85390110  .00010152  00000-0  10623-2 0   395
2 27583 097.5871 296.3261 0033188 116.8472 005.1085 14.89398912610881
0 PSLV DEB
1 27583U 01049NB  13288.86159959  .00009938  00000-0  10394-2 0   408
2 27583 097.5869 297.2925 0033218 113.6298 008.1407 14.89420093611035
0 PSLV DEB
1 27583U 01049NB  13289.86895030  .00008839  00000-0  92492-3 0   416
2 27583 097.5867 298.2585 0033201 110.4366 009.3480 14.89434069611187
0 PSLV DEB
1 27583U 01049NB  13291.26773296  .00007619  00000-0  79775-3 0   427
2 27583 097.5864 299.5999 0033130 106.0728 309.3546 14.89455959611391
0 PSLV DEB
1 27583U 01049NB  13292.27569594  .00007380  00000-0  77275-3 0   432
2 27583 097.5863 300.5665 0033079 102.9391 313.9135 14.89468370611549
0 PSLV DEB
1 27583U 01049NB  13293.28319681  .00008200  00000-0  85761-3 0   446
2 27583 097.5863 301.5327 0033058 099.8356 316.0106 14.89479706611690
0 PSLV DEB
1 27583U 01049NB  13294.84060248  .00010509  00000-0  10967-2 0   452
2 27583 097.5866 303.0262 0033099 094.9789 026.7742 14.89499121611929
0 PSLV DEB
1 27583U 01049NB  13295.84829057  .00010429  00000-0  10880-2 0   460
2 27583 097.5870 303.9927 0033149 091.7950 030.0689 14.89512855612077
